SHENZHOU-15             
1 54379U 22162A   23037.29752315  .00013641  00000+0  16070-3 0  9991
2 54379  41.4741 233.9904 0002917 169.2967 179.4677 15.61125325101352
1998-067UL              
1 54534U 98067UL  23037.83055111  .00079434  00000+0  10204-2 0  9995
2 54534  51.6369 252.2508 0001653 316.4877  43.5985 15.58400596 10398
1998-067UM              
1 54535U 98067UM  23037.87493174  .00084229  00000+0  10289-2 0  9996
2 54535  51.6389 251.7642 0001342 255.5922 118.6719 15.59704229 10405
1998-067UN              
1 54536U 98067UN  23037.85726848  .00061579  00000+0  81837-3 0  9993
2 54536  51.6416 252.2728 0001568 344.0838  90.0593 15.57603076 10351
1998-067UP              
1 54537U 98067UP  23037.84392802  .00070075  00000+0  89925-3 0  9999
2 54537  51.6394 252.1477 0001146 322.1899 127.4199 15.58481910 10396
XW-4 (CAS-10)           
1 54816U 21035C   23037.92124334  .00151163  00000+0  97149-3 0  9997
2 54816  41.4753 227.2116 0013555 282.0895  77.8431 15.74831718  7859
MARIO                   
1 55123U 98067UQ  23037.84948545  .00096463  00000+0  13172-2 0  9991
2 55123  51.6399 253.1305 0001149 255.4139 104.6725 15.56680504  6195
NUTSAT                  
1 55124U 98067UR  23037.89034526  .00140147  00000+0  17381-2 0  9997
2 55124  51.6373 252.6515 0003142 248.1173 111.9486 15.59055561  6194
LORIS                   
1 55125U 98067US  23037.86303435  .00069423  00000+0  99682-3 0  9995
2 55125  51.6386 253.2185 0000862 350.8471   9.2504 15.55465990  6206
ORCASAT                 
1 55126U 98067UT  23037.67747150  .00057395  00000+0  84724-3 0  9997
2 55126  51.6393 254.2295 0001335  11.2534 348.8486 15.54792381  6175
DANTESAT                
1 55127U 98067UU  23037.79618106  .11098045  12202-4  16090-2 0  9990
2 55127  51.6133 246.6422 0010258 262.3891  98.1925 16.33682087  6244
TJREVERB                
1 55128U 98067UV  23037.87105423  .00070533  00000+0  10272-2 0  9997
2 55128  51.6389 253.2715 0002538 340.2979  19.7913 15.55071988  6197
SPORT                   
1 55129U 98067UW  23037.89616658  .00036741  00000+0  58324-3 0  9991
2 55129  51.6389 253.4384 0001825 337.3433  22.7476 15.52988850  6192
PETITSAT                
1 55130U 98067UX  23037.86176401  .00118402  00000+0  15976-2 0  9997
2 55130  51.6382 253.2099 0003647 268.0443  92.0131 15.56897035  6144
SS-1                    
1 55181U 98067UY  23037.87705423  .00084449  00000+0  12120-2 0  9997
2 55181  51.6383 253.3108 0004947 279.0408  81.0024 15.55383189  4900
HSKSAT                  
1 55182U 98067UZ  23037.43675071  .00060848  00000+0  91914-3 0  9991
2 55182  51.6381 255.6207 0003979 274.6543  85.3993 15.54129997  4848
OPTIMAL-1               
1 55183U 98067VA  23037.89189628  .00045368  00000+0  70071-3 0  9991
2 55183  51.6392 253.4107 0004048  12.8349 347.2744 15.53644456  4913
ISS DEB (SPX-26 IPA FSE)
1 55448U 98067VB  23033.68463878  .00020619  00000+0  36266-3 0  9990
2 55448  51.6405 274.7399 0004915 307.5162  84.4803 15.50432502   311
